ONEWEB-0343             
1 49209U 21083Z   26183.70338500  .00000023  00000+0  25310-4 0  9993
2 49209  87.9181 332.3704 0001962 108.4318 251.7027 13.18687655232084
ONEWEB-0344             
1 49210U 21083AA  26183.81242980  .00000210  00000+0  54022-3 0  9992
2 49210  87.8963 317.1286 0002240  97.4559 262.6825 13.13469199232941
ONEWEB-0345             
1 49211U 21083AB  26183.80396663  .00000051  00000+0  10580-3 0  9994
2 49211  87.8977 317.1138 0002216  99.0015 261.1365 13.13469932232950
ONEWEB-0346             
1 49212U 21083AC  26183.85176492  .00000005  00000+0 -20876-4 0  9996
2 49212  87.9175 332.3404 0001878  75.6802 284.4538 13.18687073232047
ONEWEB-0348             
1 49213U 21083AD  26183.64364818  .00000025  00000+0  29998-4 0  9990
2 49213  87.9197 271.3613 0002327  88.4462 271.6938 13.20771845238851
ONEWEB-0350             
1 49214U 21083AE  26183.82258205  .00000279  00000+0  72974-3 0  9995
2 49214  87.8975 317.1151 0001270 130.5182 229.6058 13.13470335232981
ONEWEB-0351             
1 49215U 21083AF  26183.71251079  .00000018  00000+0  12544-4 0  9995
2 49215  87.9197 271.3462 0002483 112.2701 247.8695 13.20769784238821
ONEWEB-0352             
1 49216U 21083AG  26183.79380021  .00000349  00000+0  92099-3 0  9993
2 49216  87.8998 317.1256 0001919 111.9885 248.1449 13.13471831233070
ONEWEB-0354             
1 49217U 21083AH  26183.66385111  .00005033  00000+0  12343-1 0  9992
2 49217  87.9183 271.3582 0002313  83.0036 277.1361 13.20757339238851
ONEWEB-0355             
1 49218U 21083AJ  26183.82273187  .00000358  00000+0  94611-3 0  9995
2 49218  87.8969 317.1208 0002071 102.6702 257.4659 13.13470552232953
ONEWEB-0357             
1 49219U 21083AK  26183.66046187  .00000045  00000+0  79072-4 0  9994
2 49219  87.9196 271.3497 0002154 104.7367 255.4005 13.20773405238859
JILIN-1 GAOFEN 2D       
1 49256U 21086A   26183.79169815  .00005102  00000+0  30696-3 0  9993
2 49256  97.6502 306.5032 0034717  91.5549 268.9657 15.10779387263070
SHIYAN-10 01 (SY-10 01) 
1 49258U 21087A   26182.36195672  .00000708  00000+0  00000+0 0  9997
2 49258  63.1179 218.4240 6917288 269.8424  17.7529  2.00597911 34815
LANDSAT 9               
1 49260U 21088A   26183.64726542  .00000415  00000+0  10221-3 0  9994
2 49260  98.2275 253.6373 0001187  87.7642 272.3692 14.57108136253250
CS1                     
1 49261U 21088B   26183.65891998  .00016099  00000+0  47264-3 0  9996
2 49261  97.3751 246.9393 0011982  32.0858 328.1113 15.35156701262798
CS2                     
1 49262U 21088C   26183.65604355  .00017020  00000+0  47364-3 0  9992
2 49262  97.3807 249.4257 0009602  36.8405 323.3497 15.36847205262894
CUTE                    
1 49263U 21088D   26183.73472331  .00354102  55709-4  66311-3 0  9998
2 49263  97.4098 284.6077 0003345 220.9390 139.1638 16.00949625265036
CUPID                   
1 49264U 21088E   26183.60035429  .00008238  00000+0  32033-3 0  9997
2 49264  97.3857 244.6165 0012062  18.0303 342.1361 15.26223521262537
ONEWEB-0332             
1 49279U 21090A   26183.82278470  .00000128  00000+0  31002-3 0  9990
2 49279  87.8975 286.5934 0001855 106.3544 253.7790 13.14502121229631
ONEWEB-0347             
1 49280U 21090B   26183.65037909  .00000012  00000+0 -36137-5 0  9992
2 49280  87.9197 271.3597 0001827 105.2601 254.8735 13.20772620233083
ONEWEB-0349             
1 49281U 21090C   26183.68235098  .00000055  00000+0  10292-3 0  9993
2 49281  87.9194 271.3539 0002058 100.0838 260.0527 13.20773558231873
ONEWEB-0353             
1 49282U 21090D   26183.81485325  .00000286  00000+0  73699-3 0  9995
2 49282  87.8969 286.5909 0001769 106.5947 253.5377 13.14501961229633
ONEWEB-0356             
1 49283U 21090E   26183.68066027  .00000022  00000+0  21222-4 0  9999
2 49283  87.9195 271.3474 0001512  78.9879 281.1425 13.20770475231872
ONEWEB-0358             
1 49284U 21090F   26183.64099098  .00000035  00000+0  53920-4 0  9994
2 49284  87.9197 271.3626 0002030  94.4065 265.7300 13.20777734232595
ONEWEB-0359             
1 49285U 21090G   26183.70758899 -.00000401  00000+0 -10178-2 0  9998
2 49285  87.9190 271.3418 0002176  94.0547 266.0836 13.20772620232586
ONEWEB-0360             
1 49286U 21090H   26183.54600164 -.00000073  00000+0 -21076-3 0  9997
2 49286  87.9196 271.3804 0002135 100.3738 259.7636 13.20770147231870
ONEWEB-0361             
1 49287U 21090J   26183.67899315  .00000035  00000+0  53687-4 0  9990
2 49287  87.9196 271.3524 0002075  96.4345 263.7025 13.20771938232341
ONEWEB-0362             
1 49288U 21090K   26183.56804306 -.00000026  00000+0 -97455-4 0  9998
2 49288  87.9184 301.9143 0002156 105.4227 254.7144 13.19725172228946
ONEWEB-0363             
1 49289U 21090L   26183.69414771 -.00000030  00000+0 -10564-3 0  9996
2 49289  87.9193 271.3495 0001865  91.3624 268.7723 13.20771383232352
ONEWEB-0364             
1 49290U 21090M   26183.80861940  .00000088  00000+0  18340-3 0  9996
2 49290  87.9193 271.3344 0002065  99.7673 260.3693 13.20771951233509
