OBJECT_NAME,OBJECT_ID,EPOCH,MEAN_MOTION,ECCENTRICITY,INCLINATION,RA_OF_ASC_NODE,ARG_OF_PERICENTER,MEAN_ANOMALY,EPHEMERIS_TYPE,CLASSIFICATION_TYPE,NORAD_CAT_ID,ELEMENT_SET_NO,REV_AT_EPOCH,BSTAR,MEAN_MOTION_DOT,MEAN_MOTION_DDOT
ONEWEB-0343,2021-083Z,2026-07-02T16:52:52.464000,13.18687655,.00019627,87.9181,332.3704,108.4318,251.7027,0,U,49209,999,23208,.25310323E-4,.23E-6,0
ONEWEB-0344,2021-083AA,2026-07-02T19:29:53.934720,13.13469199,.00022402,87.8963,317.1286,97.4559,262.6825,0,U,49210,999,23294,.54021511E-3,.21E-5,0
ONEWEB-0345,2021-083AB,2026-07-02T19:17:42.716832,13.13469932,.0002216,87.8977,317.1138,99.0015,261.1365,0,U,49211,999,23295,.10579575E-3,.51E-6,0
ONEWEB-0346,2021-083AC,2026-07-02T20:26:32.489088,13.18687073,.00018789,87.9175,332.3404,75.6802,284.4538,0,U,49212,999,23204,-.20875634E-4,.5E-7,0
ONEWEB-0348,2021-083AD,2026-07-02T15:26:51.202752,13.20771845,.00023278,87.9197,271.3613,88.4462,271.6938,0,U,49213,999,23885,.299981E-4,.25E-6,0
ONEWEB-0350,2021-083AE,2026-07-02T19:44:31.089120,13.13470335,.00012701,87.8975,317.1151,130.5182,229.6058,0,U,49214,999,23298,.72974167E-3,.279E-5,0
ONEWEB-0351,2021-083AF,2026-07-02T17:06:00.932256,13.20769784,.00024833,87.9197,271.3462,112.2701,247.8695,0,U,49215,999,23882,.12543698E-4,.18E-6,0
ONEWEB-0352,2021-083AG,2026-07-02T19:03:04.338144,13.13471831,.00019196,87.8998,317.1256,111.9885,248.1449,0,U,49216,999,23307,.92098689E-3,.349E-5,0
ONEWEB-0354,2021-083AH,2026-07-02T15:55:56.735904,13.20757339,.00023134,87.9183,271.3582,83.0036,277.1361,0,U,49217,999,23885,.1234313E-1,.5033E-4,0
ONEWEB-0355,2021-083AJ,2026-07-02T19:44:44.033568,13.13470552,.00020716,87.8969,317.1208,102.6702,257.4659,0,U,49218,999,23295,.94610896E-3,.358E-5,0
ONEWEB-0357,2021-083AK,2026-07-02T15:51:03.905568,13.20773405,.00021546,87.9196,271.3497,104.7367,255.4005,0,U,49219,999,23885,.79072247E-4,.45E-6,0
JILIN-1 GAOFEN 2D,2021-086A,2026-07-02T19:00:02.720160,15.10779387,.00347173,97.6502,306.5032,91.5549,268.9657,0,U,49256,999,26307,.30696335E-3,.5102E-4,0
SHIYAN-10 01 (SY-10 01),2021-087A,2026-07-01T08:41:13.060608,2.00597911,.6917288,63.1179,218.4240,269.8424,17.7529,0,U,49258,999,3481,0,.708E-5,0
LANDSAT 9,2021-088A,2026-07-02T15:32:03.732288,14.57108136,.00011871,98.2275,253.6373,87.7642,272.3692,0,U,49260,999,25325,.10221453E-3,.415E-5,0
CS1,2021-088B,2026-07-02T15:48:50.686272,15.35156701,.00119822,97.3751,246.9393,32.0858,328.1113,0,U,49261,999,26279,.47264337E-3,.16099E-3,0
CS2,2021-088C,2026-07-02T15:44:42.162720,15.36847205,.00096028,97.3807,249.4257,36.8405,323.3497,0,U,49262,999,26289,.47363918E-3,.1702E-3,0
CUTE,2021-088D,2026-07-02T17:38:00.093984,16.00949625,.00033454,97.4098,284.6077,220.9390,139.1638,0,U,49263,999,26503,.66310654E-3,.354102E-2,.55708543E-4
CUPID,2021-088E,2026-07-02T14:24:30.610656,15.26223521,.00120622,97.3857,244.6165,18.0303,342.1361,0,U,49264,999,26253,.32033371E-3,.8238E-4,0
ONEWEB-0332,2021-090A,2026-07-02T19:44:48.598080,13.14502121,.00018551,87.8975,286.5934,106.3544,253.7790,0,U,49279,999,22963,.31001705E-3,.128E-5,0
ONEWEB-0347,2021-090B,2026-07-02T15:36:32.753376,13.20772620,.00018271,87.9197,271.3597,105.2601,254.8735,0,U,49280,999,23308,-.3613663E-5,.12E-6,0
ONEWEB-0349,2021-090C,2026-07-02T16:22:35.124672,13.20773558,.00020585,87.9194,271.3539,100.0838,260.0527,0,U,49281,999,23187,.10291838E-3,.55E-6,0
ONEWEB-0353,2021-090D,2026-07-02T19:33:23.320800,13.14501961,.00017697,87.8969,286.5909,106.5947,253.5377,0,U,49282,999,22963,.73699459E-3,.286E-5,0
ONEWEB-0356,2021-090E,2026-07-02T16:20:09.047328,13.20770475,.00015129,87.9195,271.3474,78.9879,281.1425,0,U,49283,999,23187,.21221687E-4,.22E-6,0
ONEWEB-0358,2021-090F,2026-07-02T15:23:01.620672,13.20777734,.00020304,87.9197,271.3626,94.4065,265.7300,0,U,49284,999,23259,.53920404E-4,.35E-6,0
ONEWEB-0359,2021-090G,2026-07-02T16:58:55.688736,13.20772620,.00021764,87.9190,271.3418,94.0547,266.0836,0,U,49285,999,23258,-.10177803E-2,-.401E-5,0
ONEWEB-0360,2021-090H,2026-07-02T13:06:14.541696,13.20770147,.0002135,87.9196,271.3804,100.3738,259.7636,0,U,49286,999,23187,-.21076E-3,-.73E-6,0
ONEWEB-0361,2021-090J,2026-07-02T16:17:45.008160,13.20771938,.00020757,87.9196,271.3524,96.4345,263.7025,0,U,49287,999,23234,.53687307E-4,.35E-6,0
ONEWEB-0362,2021-090K,2026-07-02T13:37:58.920384,13.19725172,.0002156,87.9184,301.9143,105.4227,254.7144,0,U,49288,999,22894,-.97455E-4,-.26E-6,0
ONEWEB-0363,2021-090L,2026-07-02T16:39:34.362144,13.20771383,.00018654,87.9193,271.3495,91.3624,268.7723,0,U,49289,999,23235,-.10564388E-3,-.3E-6,0
ONEWEB-0364,2021-090M,2026-07-02T19:24:24.716160,13.20771951,.0002065,87.9193,271.3344,99.7673,260.3693,0,U,49290,999,23350,.1833976E-3,.88E-6,0
